{
  "type": "FeatureCollection",
  "features": [
    {
      "type": "Feature",
      "properties": {
        "norad_id": 39777,
        "name": "IRIDIUM 33 DEB",
        "group": "iridium-33-debris",
        "lat": 14.720103810172892,
        "lon": -12.203930568285614,
        "alt_km": 664.7565948636193,
        "timestamp": "2025-12-25T11:37:44.824931+00:00",
        "meta_object_name": "IRIDIUM 33 DEB",
        "meta_object_id": "1997-051AAJ",
        "meta_epoch": "2025-12-24T21:41:15.334944",
        "meta_mean_motion": 14.56705579,
        "meta_eccentricity": 0.0060532,
        "meta_inclination": 85.9631,
        "meta_ra_of_asc_node": 169.1412,
        "meta_arg_of_pericenter": 145.8576,
        "meta_mean_anomaly": 214.6549,
        "meta_ephemeris_type": 0,
        "meta_classification_type": "U",
        "meta_norad_cat_id": 39777,
        "meta_element_set_no": 999,
        "meta_rev_at_epoch": 60362,
        "meta_bstar": 0.0030691,
        "meta_mean_motion_dot": 0.00014091,
        "meta_mean_motion_ddot": 0,
        "tle_line1": "1 39777U 97051AAJ 25358.90364971  .00014091  00000+0  30691-2 0  9992",
        "tle_line2": "2 39777  85.9631 169.1412 0060532 145.8576 214.6549 14.56705579603620"
      },
      "geometry": {
        "type": "Point",
        "coordinates": [
          -12.203930568285614,
          14.720103810172892
        ]
      }
    },
    {
      "type": "Feature",
      "properties": {
        "norad_id": 39778,
        "name": "IRIDIUM 33 DEB",
        "group": "iridium-33-debris",
        "lat": -75.33603731330005,
        "lon": -128.2940297152776,
        "alt_km": 720.1746551573397,
        "timestamp": "2025-12-25T11:37:44.824941+00:00",
        "meta_object_name": "IRIDIUM 33 DEB",
        "meta_object_id": "1997-051AAK",
        "meta_epoch": "2025-12-24T09:41:12.657408",
        "meta_mean_motion": 14.54337863,
        "meta_eccentricity": 0.00066717,
        "meta_inclination": 86.3766,
        "meta_ra_of_asc_node": 38.1613,
        "meta_arg_of_pericenter": 4.9575,
        "meta_mean_anomaly": 355.1697,
        "meta_ephemeris_type": 0,
        "meta_classification_type": "U",
        "meta_norad_cat_id": 39778,
        "meta_element_set_no": 999,
        "meta_rev_at_epoch": 60862,
        "meta_bstar": 0.00084263219,
        "meta_mean_motion_dot": 3.597e-05,
        "meta_mean_motion_ddot": 0,
        "tle_line1": "1 39778U 97051AAK 25358.40361872  .00003597  00000+0  84263-3 0  9999",
        "tle_line2": "2 39778  86.3766  38.1613 0006671   4.9575 355.1697 14.54337863608626"
      },
      "geometry": {
        "type": "Point",
        "coordinates": [
          -128.2940297152776,
          -75.33603731330005
        ]
      }
    },
    {
      "type": "Feature",
      "properties": {
        "norad_id": 39781,
        "name": "IRIDIUM 33 DEB",
        "group": "iridium-33-debris",
        "lat": -81.40668671656897,
        "lon": -132.12015077048548,
        "alt_km": 741.4473663391818,
        "timestamp": "2025-12-25T11:37:44.824951+00:00",
        "meta_object_name": "IRIDIUM 33 DEB",
        "meta_object_id": "1997-051AAN",
        "meta_epoch": "2025-12-25T00:29:27.081312",
        "meta_mean_motion": 14.20935844,
        "meta_eccentricity": 0.0172734,
        "meta_inclination": 86.3691,
        "meta_ra_of_asc_node": 252.9174,
        "meta_arg_of_pericenter": 233.7174,
        "meta_mean_anomaly": 190.1518,
        "meta_ephemeris_type": 0,
        "meta_classification_type": "U",
        "meta_norad_cat_id": 39781,
        "meta_element_set_no": 999,
        "meta_rev_at_epoch": 8281,
        "meta_bstar": 0.0049709,
        "meta_mean_motion_dot": 0.00012539,
        "meta_mean_motion_ddot": 0,
        "tle_line1": "1 39781U 97051AAN 25359.02045233  .00012539  00000+0  49709-2 0  9993",
        "tle_line2": "2 39781  86.3691 252.9174 0172734 233.7174 190.1518 14.20935844 82818"
      },
      "geometry": {
        "type": "Point",
        "coordinates": [
          -132.12015077048548,
          -81.40668671656897
        ]
      }
    },
    {
      "type": "Feature",
      "properties": {
        "norad_id": 40996,
        "name": "IRIDIUM 33 DEB",
        "group": "iridium-33-debris",
        "lat": -40.719434478519915,
        "lon": -7.697760310658206,
        "alt_km": 579.630557665274,
        "timestamp": "2025-12-25T11:37:44.824962+00:00",
        "meta_object_name": "IRIDIUM 33 DEB",
        "meta_object_id": "1997-051ABJ",
        "meta_epoch": "2025-12-21T06:48:04.268736",
        "meta_mean_motion": 14.9672554,
        "meta_eccentricity": 0.001126,
        "meta_inclination": 86.3507,
        "meta_ra_of_asc_node": 357.4159,
        "meta_arg_of_pericenter": 39.2145,
        "meta_mean_anomaly": 336.8251,
        "meta_ephemeris_type": 0,
        "meta_classification_type": "U",
        "meta_norad_cat_id": 40996,
        "meta_element_set_no": 999,
        "meta_rev_at_epoch": 62616,
        "meta_bstar": 0.0023808,
        "meta_mean_motion_dot": 0.00027327,
        "meta_mean_motion_ddot": 0,
        "tle_line1": "1 40996U 97051ABJ 25355.28338274  .00027327  00000+0  23808-2 0  9990",
        "tle_line2": "2 40996  86.3507 357.4159 0011260  39.2145 336.8251 14.96725540626169"
      },
      "geometry": {
        "type": "Point",
        "coordinates": [
          -7.697760310658206,
          -40.719434478519915
        ]
      }
    },
    {
      "type": "Feature",
      "properties": {
        "norad_id": 40998,
        "name": "IRIDIUM 33 DEB",
        "group": "iridium-33-debris",
        "lat": -34.640898731924885,
        "lon": -129.28323636852596,
        "alt_km": 753.9322095844464,
        "timestamp": "2025-12-25T11:37:44.824972+00:00",
        "meta_object_name": "IRIDIUM 33 DEB",
        "meta_object_id": "1997-051ABL",
        "meta_epoch": "2025-12-24T09:47:24.769248",
        "meta_mean_motion": 14.45133252,
        "meta_eccentricity": 0.00087498,
        "meta_inclination": 86.3815,
        "meta_ra_of_asc_node": 48.6709,
        "meta_arg_of_pericenter": 52.6459,
        "meta_mean_anomaly": 324.4141,
        "meta_ephemeris_type": 0,
        "meta_classification_type": "U",
        "meta_norad_cat_id": 40998,
        "meta_element_set_no": 999,
        "meta_rev_at_epoch": 6850,
        "meta_bstar": 0.00046540464,
        "meta_mean_motion_dot": 1.648e-05,
        "meta_mean_motion_ddot": 0,
        "tle_line1": "1 40998U 97051ABL 25358.40792557  .00001648  00000+0  46540-3 0  9994",
        "tle_line2": "2 40998  86.3815  48.6709 0008749  52.6459 324.4141 14.45133252 68504"
      },
      "geometry": {
        "type": "Point",
        "coordinates": [
          -129.28323636852596,
          -34.640898731924885
        ]
      }
    },
    {
      "type": "Feature",
      "properties": {
        "norad_id": 46435,
        "name": "IRIDIUM 33 DEB",
        "group": "iridium-33-debris",
        "lat": -50.91593093262348,
        "lon": 13.055877786542093,
        "alt_km": 641.2700274105273,
        "timestamp": "2025-12-25T11:37:44.824982+00:00",
        "meta_object_name": "IRIDIUM 33 DEB",
        "meta_object_id": "1997-051ABN",
        "meta_epoch": "2025-12-23T07:26:56.673024",
        "meta_mean_motion": 14.32901113,
        "meta_eccentricity": 0.02063954,
        "meta_inclination": 86.2811,
        "meta_ra_of_asc_node": 189.3996,
        "meta_arg_of_pericenter": 241.8575,
        "meta_mean_anomaly": 300.4526,
        "meta_ephemeris_type": 0,
        "meta_classification_type": "U",
        "meta_norad_cat_id": 46435,
        "meta_element_set_no": 999,
        "meta_rev_at_epoch": 8067,
        "meta_bstar": 0.0098042113,
        "meta_mean_motion_dot": 0.00034078,
        "meta_mean_motion_ddot": 0,
        "tle_line1": "1 46435U 97051ABN 25357.31037816  .00034078  00000+0  98042-2 0  9991",
        "tle_line2": "2 46435  86.2811 189.3996 0206395 241.8575 300.4526 14.32901113 80678"
      },
      "geometry": {
        "type": "Point",
        "coordinates": [
          13.055877786542093,
          -50.91593093262348
        ]
      }
    },
    {
      "type": "Feature",
      "properties": {
        "norad_id": 46734,
        "name": "IRIDIUM 33 DEB",
        "group": "iridium-33-debris",
        "lat": 52.53530747265025,
        "lon": 172.3774290899005,
        "alt_km": 773.095156607892,
        "timestamp": "2025-12-25T11:37:44.824993+00:00",
        "meta_object_name": "IRIDIUM 33 DEB",
        "meta_object_id": "1997-051ABR",
        "meta_epoch": "2025-12-23T07:42:11.180736",
        "meta_mean_motion": 14.41950916,
        "meta_eccentricity": 0.00375691,
        "meta_inclination": 86.2641,
        "meta_ra_of_asc_node": 358.2178,
        "meta_arg_of_pericenter": 299.6503,
        "meta_mean_anomaly": 123.5651,
        "meta_ephemeris_type": 0,
        "meta_classification_type": "U",
        "meta_norad_cat_id": 46734,
        "meta_element_set_no": 999,
        "meta_rev_at_epoch": 63163,
        "meta_bstar": 0.0010295637,
        "meta_mean_motion_dot": 3.42e-05,
        "meta_mean_motion_ddot": 0,
        "tle_line1": "1 46734U 97051ABR 25357.32096274  .00003420  00000+0  10296-2 0  9999",
        "tle_line2": "2 46734  86.2641 358.2178 0037569 299.6503 123.5651 14.41950916631633"
      },
      "geometry": {
        "type": "Point",
        "coordinates": [
          172.3774290899005,
          52.53530747265025
        ]
      }
    }
  ]
}